CCSDS_OMM_VERS = 2.0
CREATION_DATE  = 
ORIGINATOR     = 

OBJECT_NAME    = SL-16 R/B
OBJECT_ID      = 1993-016B
CENTER_NAME    = EARTH
REF_FRAME      = TEME
TIME_SYSTEM    = UTC
MEAN_ELEMENT_THEORY = SGP/SGP4

EPOCH          = 2026-02-23T12:04:30.235872
MEAN_MOTION    = 14.15300320
ECCENTRICITY   = .00108988
INCLINATION    = 71.0044
RA_OF_ASC_NODE = 244.9789
ARG_OF_PERICENTER = 333.7186
MEAN_ANOMALY   = 26.3383

EPHEMERIS_TYPE = 0
CLASSIFICATION_TYPE = U
NORAD_CAT_ID   = 22566
ELEMENT_SET_NO = 999
REV_AT_EPOCH   = 70016
BSTAR          = .66358899E-4
MEAN_MOTION_DOT = .82E-6
MEAN_MOTION_DDOT = 0

CCSDS_OMM_VERS = 2.0
CREATION_DATE  = 
ORIGINATOR     = 

OBJECT_NAME    = COSMOS 2242
OBJECT_ID      = 1993-024A
CENTER_NAME    = EARTH
REF_FRAME      = TEME
TIME_SYSTEM    = UTC
MEAN_ELEMENT_THEORY = SGP/SGP4

EPOCH          = 2026-02-23T07:51:02.854368
MEAN_MOTION    = 14.96485286
ECCENTRICITY   = .00163785
INCLINATION    = 82.5168
RA_OF_ASC_NODE = 280.4565
ARG_OF_PERICENTER = 359.0718
MEAN_ANOMALY   = 1.0470

EPHEMERIS_TYPE = 0
CLASSIFICATION_TYPE = U
NORAD_CAT_ID   = 22626
ELEMENT_SET_NO = 999
REV_AT_EPOCH   = 77824
BSTAR          = .16028332E-3
MEAN_MOTION_DOT = .185E-4
MEAN_MOTION_DDOT = 0

CCSDS_OMM_VERS = 2.0
CREATION_DATE  = 
ORIGINATOR     = 

OBJECT_NAME    = SL-16 R/B
OBJECT_ID      = 1993-059B
CENTER_NAME    = EARTH
REF_FRAME      = TEME
TIME_SYSTEM    = UTC
MEAN_ELEMENT_THEORY = SGP/SGP4

EPOCH          = 2026-02-23T10:20:58.688448
MEAN_MOTION    = 14.17228337
ECCENTRICITY   = .00190883
INCLINATION    = 70.9900
RA_OF_ASC_NODE = 41.1938
ARG_OF_PERICENTER = 236.1614
MEAN_ANOMALY   = 123.7694

EPHEMERIS_TYPE = 0
CLASSIFICATION_TYPE = U
NORAD_CAT_ID   = 22803
ELEMENT_SET_NO = 999
REV_AT_EPOCH   = 67751
BSTAR          = .12291607E-3
MEAN_MOTION_DOT = .2E-5
MEAN_MOTION_DDOT = 0

CCSDS_OMM_VERS = 2.0
CREATION_DATE  = 
ORIGINATOR     = 

OBJECT_NAME    = ARIANE 40 R/B
OBJECT_ID      = 1993-061H
CENTER_NAME    = EARTH
REF_FRAME      = TEME
TIME_SYSTEM    = UTC
MEAN_ELEMENT_THEORY = SGP/SGP4

EPOCH          = 2026-02-23T04:10:15.695328
MEAN_MOTION    = 14.32852503
ECCENTRICITY   = .00099672
INCLINATION    = 98.4949
RA_OF_ASC_NODE = 123.3459
ARG_OF_PERICENTER = 332.4090
MEAN_ANOMALY   = 27.6564

EPHEMERIS_TYPE = 0
CLASSIFICATION_TYPE = U
NORAD_CAT_ID   = 22830
ELEMENT_SET_NO = 999
REV_AT_EPOCH   = 69202
BSTAR          = .87071126E-4
MEAN_MOTION_DOT = .194E-5
MEAN_MOTION_DDOT = 0

CCSDS_OMM_VERS = 2.0
CREATION_DATE  = 
ORIGINATOR     = 

OBJECT_NAME    = COSMOS 2278
OBJECT_ID      = 1994-023A
CENTER_NAME    = EARTH
REF_FRAME      = TEME
TIME_SYSTEM    = UTC
MEAN_ELEMENT_THEORY = SGP/SGP4

EPOCH          = 2026-02-23T09:10:24.316032
MEAN_MOTION    = 14.14368549
ECCENTRICITY   = .00072891
INCLINATION    = 71.0521
RA_OF_ASC_NODE = 205.0289
ARG_OF_PERICENTER = 41.6893
MEAN_ANOMALY   = 318.4784

EPHEMERIS_TYPE = 0
CLASSIFICATION_TYPE = U
NORAD_CAT_ID   = 23087
ELEMENT_SET_NO = 999
REV_AT_EPOCH   = 64278
BSTAR          = .22256628E-3
MEAN_MOTION_DOT = .379E-5
MEAN_MOTION_DDOT = 0

CCSDS_OMM_VERS = 2.0
CREATION_DATE  = 
ORIGINATOR     = 

OBJECT_NAME    = SL-16 R/B
OBJECT_ID      = 1994-023B
CENTER_NAME    = EARTH
REF_FRAME      = TEME
TIME_SYSTEM    = UTC
MEAN_ELEMENT_THEORY = SGP/SGP4

EPOCH          = 2026-02-23T08:44:50.449920
MEAN_MOTION    = 14.15011892
ECCENTRICITY   = .00051192
INCLINATION    = 70.9990
RA_OF_ASC_NODE = 100.9739
ARG_OF_PERICENTER = 298.8697
MEAN_ANOMALY   = 61.1912

EPHEMERIS_TYPE = 0
CLASSIFICATION_TYPE = U
NORAD_CAT_ID   = 23088
ELEMENT_SET_NO = 999
REV_AT_EPOCH   = 64406
BSTAR          = .11819997E-3
MEAN_MOTION_DOT = .181E-5
MEAN_MOTION_DDOT = 0

CCSDS_OMM_VERS = 2.0
CREATION_DATE  = 
ORIGINATOR     = 

OBJECT_NAME    = SL-16 R/B
OBJECT_ID      = 1994-074B
CENTER_NAME    = EARTH
REF_FRAME      = TEME
TIME_SYSTEM    = UTC
MEAN_ELEMENT_THEORY = SGP/SGP4

EPOCH          = 2026-02-23T12:58:55.952832
MEAN_MOTION    = 14.79389658
ECCENTRICITY   = .000512
INCLINATION    = 97.7130
RA_OF_ASC_NODE = 85.9305
ARG_OF_PERICENTER = 266.8813
MEAN_ANOMALY   = 254.2945

EPHEMERIS_TYPE = 0
CLASSIFICATION_TYPE = U
NORAD_CAT_ID   = 23343
ELEMENT_SET_NO = 999
REV_AT_EPOCH   = 68515
BSTAR          = .71241495E-4
MEAN_MOTION_DOT = .482E-5
MEAN_MOTION_DDOT = 0

CCSDS_OMM_VERS = 2.0
CREATION_DATE  = 
ORIGINATOR     = 

OBJECT_NAME    = SL-16 R/B
OBJECT_ID      = 1994-077B
CENTER_NAME    = EARTH
REF_FRAME      = TEME
TIME_SYSTEM    = UTC
MEAN_ELEMENT_THEORY = SGP/SGP4

EPOCH          = 2026-02-23T06:44:38.170176
MEAN_MOTION    = 14.15564068
ECCENTRICITY   = .00037766
INCLINATION    = 70.9843
RA_OF_ASC_NODE = 22.7997
ARG_OF_PERICENTER = 227.6866
MEAN_ANOMALY   = 132.3938

EPHEMERIS_TYPE = 0
CLASSIFICATION_TYPE = U
NORAD_CAT_ID   = 23405
ELEMENT_SET_NO = 999
REV_AT_EPOCH   = 61419
BSTAR          = .7109701E-5
MEAN_MOTION_DOT = -.34E-6
MEAN_MOTION_DDOT = 0

CCSDS_OMM_VERS = 2.0
CREATION_DATE  = 
ORIGINATOR     = 

OBJECT_NAME    = ARIANE 40+ R/B
OBJECT_ID      = 1995-021B
CENTER_NAME    = EARTH
REF_FRAME      = TEME
TIME_SYSTEM    = UTC
MEAN_ELEMENT_THEORY = SGP/SGP4

EPOCH          = 2026-02-23T10:07:04.004832
MEAN_MOTION    = 14.39761036
ECCENTRICITY   = .00069427
INCLINATION    = 98.4528
RA_OF_ASC_NODE = 126.0953
ARG_OF_PERICENTER = 175.5134
MEAN_ANOMALY   = 195.9310

EPHEMERIS_TYPE = 0
CLASSIFICATION_TYPE = U
NORAD_CAT_ID   = 23561
ELEMENT_SET_NO = 999
REV_AT_EPOCH   = 61719
BSTAR          = .1050595E-3
MEAN_MOTION_DOT = .286E-5
MEAN_MOTION_DDOT = 0

CCSDS_OMM_VERS = 2.0
CREATION_DATE  = 
ORIGINATOR     = 

OBJECT_NAME    = SL-16 R/B
OBJECT_ID      = 1995-058B
CENTER_NAME    = EARTH
REF_FRAME      = TEME
TIME_SYSTEM    = UTC
MEAN_ELEMENT_THEORY = SGP/SGP4

EPOCH          = 2026-02-23T08:35:25.533888
MEAN_MOTION    = 14.15494620
ECCENTRICITY   = .00112574
INCLINATION    = 71.0202
RA_OF_ASC_NODE = 210.3421
ARG_OF_PERICENTER = 151.1221
MEAN_ANOMALY   = 209.0527

EPHEMERIS_TYPE = 0
CLASSIFICATION_TYPE = U
NORAD_CAT_ID   = 23705
ELEMENT_SET_NO = 999
REV_AT_EPOCH   = 56582
BSTAR          = -.87589795E-4
MEAN_MOTION_DOT = -.219E-5
MEAN_MOTION_DDOT = 0

CCSDS_OMM_VERS = 2.0
CREATION_DATE  = 
ORIGINATOR     = 

OBJECT_NAME    = SL-16 R/B
OBJECT_ID      = 1996-051B
CENTER_NAME    = EARTH
REF_FRAME      = TEME
TIME_SYSTEM    = UTC
MEAN_ELEMENT_THEORY = SGP/SGP4

EPOCH          = 2026-02-23T15:32:34.988352
MEAN_MOTION    = 14.12411588
ECCENTRICITY   = .00163361
INCLINATION    = 70.7584
RA_OF_ASC_NODE = 204.9589
ARG_OF_PERICENTER = 168.3290
MEAN_ANOMALY   = 191.8212

EPHEMERIS_TYPE = 0
CLASSIFICATION_TYPE = U
NORAD_CAT_ID   = 24298
ELEMENT_SET_NO = 999
REV_AT_EPOCH   = 51966
BSTAR          = .79372969E-4
MEAN_MOTION_DOT = .97E-6
MEAN_MOTION_DDOT = 0

CCSDS_OMM_VERS = 2.0
CREATION_DATE  = 
ORIGINATOR     = 

OBJECT_NAME    = ORBVIEW 2 (SEASTAR)
OBJECT_ID      = 1997-037A
CENTER_NAME    = EARTH
REF_FRAME      = TEME
TIME_SYSTEM    = UTC
MEAN_ELEMENT_THEORY = SGP/SGP4

EPOCH          = 2026-02-23T09:47:06.597600
MEAN_MOTION    = 14.35482661
ECCENTRICITY   = .00031978
INCLINATION    = 98.8542
RA_OF_ASC_NODE = 218.3430
ARG_OF_PERICENTER = 100.5611
MEAN_ANOMALY   = 259.5934

EPHEMERIS_TYPE = 0
CLASSIFICATION_TYPE = U
NORAD_CAT_ID   = 24883
ELEMENT_SET_NO = 999
REV_AT_EPOCH   = 50642
BSTAR          = .12031405E-3
MEAN_MOTION_DOT = .299E-5
MEAN_MOTION_DDOT = 0

