SL-16 R/B               
1 22566U 93016B   26054.50312773  .00000082  00000+0  66359-4 0  9997
2 22566  71.0044 244.9789 0010898 333.7186  26.3383 14.15300320700167
COSMOS 2242             
1 22626U 93024A   26054.32711637  .00001850  00000+0  16028-3 0  9996
2 22626  82.5168 280.4565 0016378 359.0718   1.0470 14.96485286778241
SL-16 R/B               
1 22803U 93059B   26054.43123482  .00000200  00000+0  12292-3 0  9995
2 22803  70.9900  41.1938 0019088 236.1614 123.7694 14.17228337677513
ARIANE 40 R/B           
1 22830U 93061H   26054.17379277  .00000194  00000+0  87071-4 0  9994
2 22830  98.4949 123.3459 0009967 332.4090  27.6564 14.32852503692021
COSMOS 2278             
1 23087U 94023A   26054.38222588  .00000379  00000+0  22257-3 0  9992
2 23087  71.0521 205.0289 0007289  41.6893 318.4784 14.14368549642788
SL-16 R/B               
1 23088U 94023B   26054.36447280  .00000181  00000+0  11820-3 0  9994
2 23088  70.9990 100.9739 0005119 298.8697  61.1912 14.15011892644063
SL-16 R/B               
1 23343U 94074B   26054.54092538  .00000482  00000+0  71241-4 0  9994
2 23343  97.7130  85.9305 0005120 266.8813 254.2945 14.79389658685152
SL-16 R/B               
1 23405U 94077B   26054.28099734 -.00000034  00000+0  71097-5 0  9996
2 23405  70.9843  22.7997 0003776 227.6866 132.3938 14.15564068614193
ARIANE 40+ R/B          
1 23561U 95021B   26054.42157413  .00000286  00000+0  10506-3 0  9998
2 23561  98.4528 126.0953 0006942 175.5134 195.9310 14.39761036617190
SL-16 R/B               
1 23705U 95058B   26054.35793442 -.00000219  00000+0 -87590-4 0  9994
2 23705  71.0202 210.3421 0011257 151.1221 209.0527 14.15494620565820
SL-16 R/B               
1 24298U 96051B   26054.64762718  .00000097  00000+0  79373-4 0  9992
2 24298  70.7584 204.9589 0016336 168.3290 191.8212 14.12411588519669
ORBVIEW 2 (SEASTAR)     
1 24883U 97037A   26054.40771525  .00000299  00000+0  12031-3 0  9998
2 24883  98.8542 218.3430 0003197 100.5611 259.5934 14.35482661506422
